{
  "type": "FeatureCollection",
  "features": [
    {
      "type": "Feature",
      "properties": {
        "norad_id": 66830,
        "name": "STARLINK-35881",
        "group": "last-30-days",
        "lat": -53.17660860313697,
        "lon": 165.2476363697745,
        "alt_km": 398.31448726751205,
        "timestamp": "2025-12-14T07:33:18.188534+00:00",
        "meta_object_name": "STARLINK-35881",
        "meta_object_id": "2025-280K",
        "meta_epoch": "2025-12-13T14:57:12.997440",
        "meta_mean_motion": 15.72899586,
        "meta_eccentricity": 0.00204496,
        "meta_inclination": 69.9919,
        "meta_ra_of_asc_node": 196.3038,
        "meta_arg_of_pericenter": 74.0487,
        "meta_mean_anomaly": 286.2961,
        "meta_ephemeris_type": 0,
        "meta_classification_type": "U",
        "meta_norad_cat_id": 66830,
        "meta_element_set_no": 999,
        "meta_rev_at_epoch": 306,
        "meta_bstar": -0.070632718,
        "meta_mean_motion_dot": -0.07771118,
        "meta_mean_motion_ddot": 0,
        "tle_line1": "1 66830U 25280K   25347.62306710 -.07771118  00000+0 -70633-1 0  9999",
        "tle_line2": "2 66830  69.9919 196.3038 0020449  74.0487 286.2961 15.72899586  3060"
      },
      "geometry": {
        "type": "Point",
        "coordinates": [
          165.2476363697745,
          -53.17660860313697
        ]
      }
    },
    {
      "type": "Feature",
      "properties": {
        "norad_id": 66831,
        "name": "STARLINK-35788",
        "group": "last-30-days",
        "lat": -53.27122299944449,
        "lon": 165.13996783114388,
        "alt_km": 399.66203355046855,
        "timestamp": "2025-12-14T07:33:18.188545+00:00",
        "meta_object_name": "STARLINK-35788",
        "meta_object_id": "2025-280L",
        "meta_epoch": "2025-12-13T14:56:46.344768",
        "meta_mean_motion": 15.72459416,
        "meta_eccentricity": 0.00168784,
        "meta_inclination": 69.9932,
        "meta_ra_of_asc_node": 196.3022,
        "meta_arg_of_pericenter": 78.8344,
        "meta_mean_anomaly": 281.475,
        "meta_ephemeris_type": 0,
        "meta_classification_type": "U",
        "meta_norad_cat_id": 66831,
        "meta_element_set_no": 999,
        "meta_rev_at_epoch": 306,
        "meta_bstar": -0.076984788,
        "meta_mean_motion_dot": -0.08455505,
        "meta_mean_motion_ddot": 0,
        "tle_line1": "1 66831U 25280L   25347.62275862 -.08455505  00000+0 -76985-1 0  9999",
        "tle_line2": "2 66831  69.9932 196.3022 0016878  78.8344 281.4750 15.72459416  3061"
      },
      "geometry": {
        "type": "Point",
        "coordinates": [
          165.13996783114388,
          -53.27122299944449
        ]
      }
    },
    {
      "type": "Feature",
      "properties": {
        "norad_id": 66832,
        "name": "STARLINK-35768",
        "group": "last-30-days",
        "lat": -15.999569707385179,
        "lon": -171.677745093236,
        "alt_km": 329.8049612633695,
        "timestamp": "2025-12-14T07:33:18.188555+00:00",
        "meta_object_name": "STARLINK-35768",
        "meta_object_id": "2025-280M",
        "meta_epoch": "2025-12-13T14:55:27.560064",
        "meta_mean_motion": 15.80021789,
        "meta_eccentricity": 0.00151194,
        "meta_inclination": 69.9927,
        "meta_ra_of_asc_node": 196.2997,
        "meta_arg_of_pericenter": 247.1281,
        "meta_mean_anomaly": 112.8324,
        "meta_ephemeris_type": 0,
        "meta_classification_type": "U",
        "meta_norad_cat_id": 66832,
        "meta_element_set_no": 999,
        "meta_rev_at_epoch": 306,
        "meta_bstar": 0.0077359951,
        "meta_mean_motion_dot": 0.01661345,
        "meta_mean_motion_ddot": 0,
        "tle_line1": "1 66832U 25280M   25347.62184676  .01661345  00000+0  77360-2 0  9993",
        "tle_line2": "2 66832  69.9927 196.2997 0015119 247.1281 112.8324 15.80021789  3065"
      },
      "geometry": {
        "type": "Point",
        "coordinates": [
          -171.677745093236,
          -15.999569707385179
        ]
      }
    },
    {
      "type": "Feature",
      "properties": {
        "norad_id": 66833,
        "name": "STARLINK-35858",
        "group": "last-30-days",
        "lat": -24.335949595842507,
        "lon": -175.1542294781389,
        "alt_km": 341.106990444061,
        "timestamp": "2025-12-14T07:33:18.188568+00:00",
        "meta_object_name": "STARLINK-35858",
        "meta_object_id": "2025-280N",
        "meta_epoch": "2025-12-13T07:19:00.808608",
        "meta_mean_motion": 15.78368693,
        "meta_eccentricity": 0.00051238,
        "meta_inclination": 69.9935,
        "meta_ra_of_asc_node": 197.2021,
        "meta_arg_of_pericenter": 320.7844,
        "meta_mean_anomaly": 39.2984,
        "meta_ephemeris_type": 0,
        "meta_classification_type": "U",
        "meta_norad_cat_id": 66833,
        "meta_element_set_no": 999,
        "meta_rev_at_epoch": 301,
        "meta_bstar": -0.0044392665,
        "meta_mean_motion_dot": -0.00708761,
        "meta_mean_motion_ddot": 0,
        "tle_line1": "1 66833U 25280N   25347.30487047 -.00708761  00000+0 -44393-2 0  9992",
        "tle_line2": "2 66833  69.9935 197.2021 0005123 320.7844  39.2984 15.78368693  3015"
      },
      "geometry": {
        "type": "Point",
        "coordinates": [
          -175.1542294781389,
          -24.335949595842507
        ]
      }
    },
    {
      "type": "Feature",
      "properties": {
        "norad_id": 66834,
        "name": "STARLINK-35840",
        "group": "last-30-days",
        "lat": -20.09540468535878,
        "lon": -173.33896219273151,
        "alt_km": 341.01676941792994,
        "timestamp": "2025-12-14T07:33:18.188580+00:00",
        "meta_object_name": "STARLINK-35840",
        "meta_object_id": "2025-280P",
        "meta_epoch": "2025-12-13T02:44:47.131296",
        "meta_mean_motion": 15.79224709,
        "meta_eccentricity": 0.00037495,
        "meta_inclination": 69.9897,
        "meta_ra_of_asc_node": 197.7403,
        "meta_arg_of_pericenter": 276.713,
        "meta_mean_anomaly": 83.3644,
        "meta_ephemeris_type": 0,
        "meta_classification_type": "U",
        "meta_norad_cat_id": 66834,
        "meta_element_set_no": 999,
        "meta_rev_at_epoch": 298,
        "meta_bstar": -0.0040249271,
        "meta_mean_motion_dot": -0.00670423,
        "meta_mean_motion_ddot": 0,
        "tle_line1": "1 66834U 25280P   25347.11443439 -.00670423  00000+0 -40249-2 0  9998",
        "tle_line2": "2 66834  69.9897 197.7403 0003749 276.7130  83.3644 15.79224709  2980"
      },
      "geometry": {
        "type": "Point",
        "coordinates": [
          -173.33896219273151,
          -20.09540468535878
        ]
      }
    },
    {
      "type": "Feature",
      "properties": {
        "norad_id": 66835,
        "name": "STARLINK-35890",
        "group": "last-30-days",
        "lat": -10.172487793250129,
        "lon": -169.43700018468985,
        "alt_km": 328.977047443409,
        "timestamp": "2025-12-14T07:33:18.188591+00:00",
        "meta_object_name": "STARLINK-35890",
        "meta_object_id": "2025-280Q",
        "meta_epoch": "2025-12-13T13:22:48.290304",
        "meta_mean_motion": 15.79814864,
        "meta_eccentricity": 0.00138963,
        "meta_inclination": 69.9919,
        "meta_ra_of_asc_node": 196.4761,
        "meta_arg_of_pericenter": 248.7562,
        "meta_mean_anomaly": 111.2155,
        "meta_ephemeris_type": 0,
        "meta_classification_type": "U",
        "meta_norad_cat_id": 66835,
        "meta_element_set_no": 999,
        "meta_rev_at_epoch": 305,
        "meta_bstar": 0.0087903868,
        "meta_mean_motion_dot": 0.0185624,
        "meta_mean_motion_ddot": 0,
        "tle_line1": "1 66835U 25280Q   25347.55750336  .01856240  00000+0  87904-2 0  9995",
        "tle_line2": "2 66835  69.9919 196.4761 0013896 248.7562 111.2155 15.79814864  3055"
      },
      "geometry": {
        "type": "Point",
        "coordinates": [
          -169.43700018468985,
          -10.172487793250129
        ]
      }
    },
    {
      "type": "Feature",
      "properties": {
        "norad_id": 66836,
        "name": "STARLINK-35838",
        "group": "last-30-days",
        "lat": -17.618675570891565,
        "lon": -172.3246690977443,
        "alt_km": 342.1542239666751,
        "timestamp": "2025-12-14T07:33:18.188607+00:00",
        "meta_object_name": "STARLINK-35838",
        "meta_object_id": "2025-280R",
        "meta_epoch": "2025-12-13T04:15:00.565632",
        "meta_mean_motion": 15.78955191,
        "meta_eccentricity": 0.00042084,
        "meta_inclination": 69.992,
        "meta_ra_of_asc_node": 197.5573,
        "meta_arg_of_pericenter": 272.961,
        "meta_mean_anomaly": 87.1108,
        "meta_ephemeris_type": 0,
        "meta_classification_type": "U",
        "meta_norad_cat_id": 66836,
        "meta_element_set_no": 999,
        "meta_rev_at_epoch": 299,
        "meta_bstar": -0.0047166842,
        "meta_mean_motion_dot": -0.00767648,
        "meta_mean_motion_ddot": 0,
        "tle_line1": "1 66836U 25280R   25347.17708988 -.00767648  00000+0 -47167-2 0  9991",
        "tle_line2": "2 66836  69.9920 197.5573 0004208 272.9610  87.1108 15.78955191  2990"
      },
      "geometry": {
        "type": "Point",
        "coordinates": [
          -172.3246690977443,
          -17.618675570891565
        ]
      }
    }
  ]
}